EUTELSAT 9B             
1 41310U 16005A   26095.22822667  .00000063  00000+0  00000+0 0  9995
2 41310   0.0557  57.6738 0003952 289.0878 297.9152  1.00271225 37381
EUTELSAT 65 WEST A      
1 41382U 16014A   26095.15114197 -.00000275  00000+0  00000+0 0  9994
2 41382   0.0639 326.3527 0002298  51.0264 165.2921  1.00271372 36799
EUTELSAT 117 WEST B     
1 41589U 16038B   26095.22263942 -.00000010  00000+0  00000+0 0  9997
2 41589   0.0144  59.8312 0000400 210.4490 246.4043  1.00270000 35933
EUTELSAT 172B           
1 42741U 17029B   26094.99766853 -.00000005  00000+0  00000+0 0  9995
2 42741   0.0188 165.5695 0000204 195.0896   3.8088  1.00269545 33003
EUTELSAT 7C             
1 44334U 19034B   26095.22822667  .00000049  00000+0  00000+0 0  9993
2 44334   0.0644 181.5811 0003340 181.8678 279.2414  1.00271007  6102
EUTELSAT 5 WEST B       
1 44624U 19067A   26095.24482322 -.00000041  00000+0  00000+0 0  9996
2 44624   0.0660  12.3503 0003462  12.4462 251.8810  1.00272865 23700
EUTELSAT KONNECT        
1 45027U 20005B   26095.22822667  .00000051  00000+0  00000+0 0  9996
2 45027   0.0696  94.0317 0001244 221.8750 327.0030  1.00272881 23606
EUTELSAT QUANTUM        
1 49056U 21069B   26095.18398595  .00000127  00000+0  00000+0 0  9990
2 49056   0.0068 228.7797 0002276 145.4707 293.1628  1.00270640 17196
EUTELSAT KONNECT VHTS   
1 53765U 22110A   26095.22822667  .00000018  00000+0  00000+0 0  9996
2 53765   0.0606 100.4095 0002973 252.6290 285.3608  1.00271962  6103
EUTELSAT HOTBIRD 13F    
1 54048U 22134A   26095.22267174  .00000088  00000+0  00000+0 0  9990
2 54048   0.0534 285.1812 0001988  80.9519 280.5598  1.00271931 12644
EUTELSAT HOTBIRD 13G    
1 54225U 22146A   26095.22267174  .00000088  00000+0  00000+0 0  9990
2 54225   0.0424 231.6369 0002022 303.4110 111.6474  1.00272207  6739
EUTELSAT 10B            
1 54259U 22157A   26095.22822667  .00000069  00000+0  00000+0 0  9992
2 54259   0.0603  95.9756 0002043  14.5432 175.1367  1.00269081 12296
EUTELSAT 36D            
1 59346U 24059A   26095.21155890  .00000157  00000+0  00000+0 0  9991
2 59346   0.0184 171.9462 0000663 274.7253 218.8731  1.00271961  7416
