[{"OBJECT_NAME":"EUTELSAT 9B","OBJECT_ID":"2016-005A","EPOCH":"2026-04-05T05:28:38.784288","MEAN_MOTION":1.00271225,"ECCENTRICITY":0.00039523,"INCLINATION":0.0557,"RA_OF_ASC_NODE":57.6738,"ARG_OF_PERICENTER":289.0878,"MEAN_ANOMALY":297.9152,"EPHEMERIS_TYPE":0,"CLASSIFICATION_TYPE":"U","NORAD_CAT_ID":41310,"ELEMENT_SET_NO":999,"REV_AT_EPOCH":3738,"BSTAR":0,"MEAN_MOTION_DOT":6.3e-7,"MEAN_MOTION_DDOT":0},{"OBJECT_NAME":"EUTELSAT 65 WEST A","OBJECT_ID":"2016-014A","EPOCH":"2026-04-05T03:37:38.666208","MEAN_MOTION":1.00271372,"ECCENTRICITY":0.00022986,"INCLINATION":0.0639,"RA_OF_ASC_NODE":326.3527,"ARG_OF_PERICENTER":51.0264,"MEAN_ANOMALY":165.2921,"EPHEMERIS_TYPE":0,"CLASSIFICATION_TYPE":"U","NORAD_CAT_ID":41382,"ELEMENT_SET_NO":999,"REV_AT_EPOCH":3679,"BSTAR":0,"MEAN_MOTION_DOT":-2.75e-6,"MEAN_MOTION_DDOT":0},{"OBJECT_NAME":"EUTELSAT 117 WEST B","OBJECT_ID":"2016-038B","EPOCH":"2026-04-05T05:20:36.045888","MEAN_MOTION":1.0027,"ECCENTRICITY":4.001e-5,"INCLINATION":0.0144,"RA_OF_ASC_NODE":59.8312,"ARG_OF_PERICENTER":210.449,"MEAN_ANOMALY":246.4043,"EPHEMERIS_TYPE":0,"CLASSIFICATION_TYPE":"U","NORAD_CAT_ID":41589,"ELEMENT_SET_NO":999,"REV_AT_EPOCH":3593,"BSTAR":0,"MEAN_MOTION_DOT":-1.0e-7,"MEAN_MOTION_DDOT":0},{"OBJECT_NAME":"EUTELSAT 172B","OBJECT_ID":"2017-029B","EPOCH":"2026-04-04T23:56:38.560992","MEAN_MOTION":1.00269545,"ECCENTRICITY":2.046e-5,"INCLINATION":0.0188,"RA_OF_ASC_NODE":165.5695,"ARG_OF_PERICENTER":195.0896,"MEAN_ANOMALY":3.8088,"EPHEMERIS_TYPE":0,"CLASSIFICATION_TYPE":"U","NORAD_CAT_ID":42741,"ELEMENT_SET_NO":999,"REV_AT_EPOCH":3300,"BSTAR":0,"MEAN_MOTION_DOT":-5.0e-8,"MEAN_MOTION_DDOT":0},{"OBJECT_NAME":"EUTELSAT 7C","OBJECT_ID":"2019-034B","EPOCH":"2026-04-05T05:28:38.784288","MEAN_MOTION":1.00271007,"ECCENTRICITY":0.00033408,"INCLINATION":0.0644,"RA_OF_ASC_NODE":181.5811,"ARG_OF_PERICENTER":181.8678,"MEAN_ANOMALY":279.2414,"EPHEMERIS_TYPE":0,"CLASSIFICATION_TYPE":"U","NORAD_CAT_ID":44334,"ELEMENT_SET_NO":999,"REV_AT_EPOCH":610,"BSTAR":0,"MEAN_MOTION_DOT":4.9e-7,"MEAN_MOTION_DDOT":0},{"OBJECT_NAME":"EUTELSAT 5 WEST B","OBJECT_ID":"2019-067A","EPOCH":"2026-04-05T05:52:32.726208","MEAN_MOTION":1.00272865,"ECCENTRICITY":0.00034622,"INCLINATION":0.066,"RA_OF_ASC_NODE":12.3503,"ARG_OF_PERICENTER":12.4462,"MEAN_ANOMALY":251.881,"EPHEMERIS_TYPE":0,"CLASSIFICATION_TYPE":"U","NORAD_CAT_ID":44624,"ELEMENT_SET_NO":999,"REV_AT_EPOCH":2370,"BSTAR":0,"MEAN_MOTION_DOT":-4.1e-7,"MEAN_MOTION_DDOT":0},{"OBJECT_NAME":"EUTELSAT KONNECT","OBJECT_ID":"2020-005B","EPOCH":"2026-04-05T05:28:38.784288","MEAN_MOTION":1.00272881,"ECCENTRICITY":0.00012443,"INCLINATION":0.0696,"RA_OF_ASC_NODE":94.0317,"ARG_OF_PERICENTER":221.875,"MEAN_ANOMALY":327.003,"EPHEMERIS_TYPE":0,"CLASSIFICATION_TYPE":"U","NORAD_CAT_ID":45027,"ELEMENT_SET_NO":999,"REV_AT_EPOCH":2360,"BSTAR":0,"MEAN_MOTION_DOT":5.1e-7,"MEAN_MOTION_DDOT":0},{"OBJECT_NAME":"EUTELSAT QUANTUM","OBJECT_ID":"2021-069B","EPOCH":"2026-04-05T04:24:56.386080","MEAN_MOTION":1.0027064,"ECCENTRICITY":0.00022763,"INCLINATION":0.0068,"RA_OF_ASC_NODE":228.7797,"ARG_OF_PERICENTER":145.4707,"MEAN_ANOMALY":293.1628,"EPHEMERIS_TYPE":0,"CLASSIFICATION_TYPE":"U","NORAD_CAT_ID":49056,"ELEMENT_SET_NO":999,"REV_AT_EPOCH":1719,"BSTAR":0,"MEAN_MOTION_DOT":1.27e-6,"MEAN_MOTION_DDOT":0},{"OBJECT_NAME":"EUTELSAT KONNECT VHTS","OBJECT_ID":"2022-110A","EPOCH":"2026-04-05T05:28:38.784288","MEAN_MOTION":1.00271962,"ECCENTRICITY":0.00029735,"INCLINATION":0.0606,"RA_OF_ASC_NODE":100.4095,"ARG_OF_PERICENTER":252.629,"MEAN_ANOMALY":285.3608,"EPHEMERIS_TYPE":0,"CLASSIFICATION_TYPE":"U","NORAD_CAT_ID":53765,"ELEMENT_SET_NO":999,"REV_AT_EPOCH":610,"BSTAR":0,"MEAN_MOTION_DOT":1.8e-7,"MEAN_MOTION_DDOT":0},{"OBJECT_NAME":"EUTELSAT HOTBIRD 13F","OBJECT_ID":"2022-134A","EPOCH":"2026-04-05T05:20:38.838336","MEAN_MOTION":1.00271931,"ECCENTRICITY":0.00019881,"INCLINATION":0.0534,"RA_OF_ASC_NODE":285.1812,"ARG_OF_PERICENTER":80.9519,"MEAN_ANOMALY":280.5598,"EPHEMERIS_TYPE":0,"CLASSIFICATION_TYPE":"U","NORAD_CAT_ID":54048,"ELEMENT_SET_NO":999,"REV_AT_EPOCH":1264,"BSTAR":0,"MEAN_MOTION_DOT":8.8e-7,"MEAN_MOTION_DDOT":0},{"OBJECT_NAME":"EUTELSAT HOTBIRD 13G","OBJECT_ID":"2022-146A","EPOCH":"2026-04-05T05:20:38.838336","MEAN_MOTION":1.00272207,"ECCENTRICITY":0.00020226,"INCLINATION":0.0424,"RA_OF_ASC_NODE":231.6369,"ARG_OF_PERICENTER":303.411,"MEAN_ANOMALY":111.6474,"EPHEMERIS_TYPE":0,"CLASSIFICATION_TYPE":"U","NORAD_CAT_ID":54225,"ELEMENT_SET_NO":999,"REV_AT_EPOCH":673,"BSTAR":0,"MEAN_MOTION_DOT":8.8e-7,"MEAN_MOTION_DDOT":0},{"OBJECT_NAME":"EUTELSAT 10B","OBJECT_ID":"2022-157A","EPOCH":"2026-04-05T05:28:38.784288","MEAN_MOTION":1.00269081,"ECCENTRICITY":0.00020438,"INCLINATION":0.0603,"RA_OF_ASC_NODE":95.9756,"ARG_OF_PERICENTER":14.5432,"MEAN_ANOMALY":175.1367,"EPHEMERIS_TYPE":0,"CLASSIFICATION_TYPE":"U","NORAD_CAT_ID":54259,"ELEMENT_SET_NO":999,"REV_AT_EPOCH":1229,"BSTAR":0,"MEAN_MOTION_DOT":6.9e-7,"MEAN_MOTION_DDOT":0},{"OBJECT_NAME":"EUTELSAT 36D","OBJECT_ID":"2024-059A","EPOCH":"2026-04-05T05:04:38.688960","MEAN_MOTION":1.00271961,"ECCENTRICITY":6.633e-5,"INCLINATION":0.0184,"RA_OF_ASC_NODE":171.9462,"ARG_OF_PERICENTER":274.7253,"MEAN_ANOMALY":218.8731,"EPHEMERIS_TYPE":0,"CLASSIFICATION_TYPE":"U","NORAD_CAT_ID":59346,"ELEMENT_SET_NO":999,"REV_AT_EPOCH":741,"BSTAR":0,"MEAN_MOTION_DOT":1.57e-6,"MEAN_MOTION_DDOT":0}]
